STARLINK-1667           
1 46155U 20057AQ  26031.00001157  .00169962  00000+0  26638-2 0  9990
2 46155  53.0284  48.1307 0007690  10.0052  67.1260 15.52604983  5907
STARLINK-1545           
1 46156U 20057AR  26031.00001157  .00165703  00000+0  26855-2 0  9991
2 46156  53.0485  81.1785 0005899 266.4715 143.9746 15.51701066  5901
STARLINK-1587           
1 46157U 20057AS  26031.00001157  .00257958  00000+0  20220-2 0  9996
2 46157  53.0420  46.2007 0002021 347.8891 109.4071 15.70255963  5957
STARLINK-1595           
1 46159U 20057AU  26031.00001157  .00088799  00000+0  20099-2 0  9997
2 46159  53.0519 116.5131 0006494 333.2902  45.0820 15.42385662  5896
STARLINK-1598           
1 46160U 20057AV  26031.00001157  .01818801  00000+0  41895-1 0  9991
2 46160  53.0556 103.6859 0001638  80.8948 280.1092 15.38854008  5795
STARLINK-1612           
1 46164U 20057AZ  26031.00001157  .00212588  00000+0  21142-2 0  9998
2 46164  53.0408  39.1303 0003258  80.0815  35.6707 15.64531278  5726
STARLINK-1626           
1 46167U 20057BC  26031.00001157  .00102029  00000+0  20362-2 0  9992
2 46167  53.0522 115.1720 0007028 344.6444 171.6675 15.46030339  5637
STARLINK-1627           
1 46168U 20057BD  26031.00001157  .00178791  00000+0  25133-2 0  9993
2 46168  53.0479  49.8475 0005849 315.5886 245.5770 15.55572795  5864
STARLINK-1633           
1 46171U 20057BG  26031.00001157  .00153676  00000+0  26813-2 0  9998
2 46171  53.0468  81.1731 0004681 231.6148 353.5706 15.49676708  5852
STARLINK-1635           
1 46172U 20057BH  26031.00001157  .00198483  00000+0  30474-2 0  9992
2 46172  53.0479  80.2475 0004132 275.4270 345.8136 15.53085485  5912
STARLINK-1640           
1 46173U 20057BJ  26031.00001157  .00161863  00000+0  33559-2 0  9992
2 46173  53.0549 119.7135 0005012 351.7017 170.5117 15.44653031  5726
STARLINK-1641           
1 46174U 20057BK  26030.53125935  .00034316  00000+0  76174-3 0  9994
2 46174  53.0517 107.2199 0000420  95.9077 264.1976 15.43415781300600
STARLINK-1654           
1 46326U 20062B   26031.00001157  .00121313  00000+0  15316-2 0  9995
2 46326  53.0460 158.4284 0010538 184.0446  35.5703 15.58640006  5875
STARLINK-1686           
1 46328U 20062D   26030.73336079  .00056765  00000+0  83615-3 0  9996
2 46328  53.0474 140.5091 0009722 188.9317 171.1521 15.54840374299240
STARLINK-1695           
1 46329U 20062E   26031.00001157  .00081041  00000+0  16365-2 0  9996
2 46329  53.0524 157.4592 0000421 328.5095 337.9982 15.45818774  5812
STARLINK-1710           
1 46330U 20062F   26031.00001157  .00286598  00000+0  15330-2 0  9993
2 46330  53.0347 109.9149 0005392 315.0041  41.1008 15.78989112  5871
