[{"OBJECT_NAME":"STARLINK-1667","OBJECT_ID":"2020-057AQ","EPOCH":"2026-01-31T00:00:00.999648","MEAN_MOTION":15.52604983,"ECCENTRICITY":0.00076904,"INCLINATION":53.0284,"RA_OF_ASC_NODE":48.1307,"ARG_OF_PERICENTER":10.0052,"MEAN_ANOMALY":67.126,"EPHEMERIS_TYPE":0,"CLASSIFICATION_TYPE":"U","NORAD_CAT_ID":46155,"ELEMENT_SET_NO":999,"REV_AT_EPOCH":590,"BSTAR":0.0026638287,"MEAN_MOTION_DOT":0.00169962,"MEAN_MOTION_DDOT":0},{"OBJECT_NAME":"STARLINK-1545","OBJECT_ID":"2020-057AR","EPOCH":"2026-01-31T00:00:00.999648","MEAN_MOTION":15.51701066,"ECCENTRICITY":0.00058999,"INCLINATION":53.0485,"RA_OF_ASC_NODE":81.1785,"ARG_OF_PERICENTER":266.4715,"MEAN_ANOMALY":143.9746,"EPHEMERIS_TYPE":0,"CLASSIFICATION_TYPE":"U","NORAD_CAT_ID":46156,"ELEMENT_SET_NO":999,"REV_AT_EPOCH":590,"BSTAR":0.0026855116,"MEAN_MOTION_DOT":0.00165703,"MEAN_MOTION_DDOT":0},{"OBJECT_NAME":"STARLINK-1587","OBJECT_ID":"2020-057AS","EPOCH":"2026-01-31T00:00:00.999648","MEAN_MOTION":15.70255963,"ECCENTRICITY":0.00020219,"INCLINATION":53.042,"RA_OF_ASC_NODE":46.2007,"ARG_OF_PERICENTER":347.8891,"MEAN_ANOMALY":109.4071,"EPHEMERIS_TYPE":0,"CLASSIFICATION_TYPE":"U","NORAD_CAT_ID":46157,"ELEMENT_SET_NO":999,"REV_AT_EPOCH":595,"BSTAR":0.0020219781,"MEAN_MOTION_DOT":0.00257958,"MEAN_MOTION_DDOT":0},{"OBJECT_NAME":"STARLINK-1595","OBJECT_ID":"2020-057AU","EPOCH":"2026-01-31T00:00:00.999648","MEAN_MOTION":15.42385662,"ECCENTRICITY":0.00064942,"INCLINATION":53.0519,"RA_OF_ASC_NODE":116.5131,"ARG_OF_PERICENTER":333.2902,"MEAN_ANOMALY":45.082,"EPHEMERIS_TYPE":0,"CLASSIFICATION_TYPE":"U","NORAD_CAT_ID":46159,"ELEMENT_SET_NO":999,"REV_AT_EPOCH":589,"BSTAR":0.0020099157,"MEAN_MOTION_DOT":0.00088799,"MEAN_MOTION_DDOT":0},{"OBJECT_NAME":"STARLINK-1598","OBJECT_ID":"2020-057AV","EPOCH":"2026-01-31T00:00:00.999648","MEAN_MOTION":15.38854008,"ECCENTRICITY":0.00016389,"INCLINATION":53.0556,"RA_OF_ASC_NODE":103.6859,"ARG_OF_PERICENTER":80.8948,"MEAN_ANOMALY":280.1092,"EPHEMERIS_TYPE":0,"CLASSIFICATION_TYPE":"U","NORAD_CAT_ID":46160,"ELEMENT_SET_NO":999,"REV_AT_EPOCH":579,"BSTAR":0.041894598,"MEAN_MOTION_DOT":0.01818801,"MEAN_MOTION_DDOT":0},{"OBJECT_NAME":"STARLINK-1612","OBJECT_ID":"2020-057AZ","EPOCH":"2026-01-31T00:00:00.999648","MEAN_MOTION":15.64531278,"ECCENTRICITY":0.00032588,"INCLINATION":53.0408,"RA_OF_ASC_NODE":39.1303,"ARG_OF_PERICENTER":80.0815,"MEAN_ANOMALY":35.6707,"EPHEMERIS_TYPE":0,"CLASSIFICATION_TYPE":"U","NORAD_CAT_ID":46164,"ELEMENT_SET_NO":999,"REV_AT_EPOCH":572,"BSTAR":0.0021141925,"MEAN_MOTION_DOT":0.00212588,"MEAN_MOTION_DDOT":0},{"OBJECT_NAME":"STARLINK-1626","OBJECT_ID":"2020-057BC","EPOCH":"2026-01-31T00:00:00.999648","MEAN_MOTION":15.46030339,"ECCENTRICITY":0.00070281,"INCLINATION":53.0522,"RA_OF_ASC_NODE":115.172,"ARG_OF_PERICENTER":344.6444,"MEAN_ANOMALY":171.6675,"EPHEMERIS_TYPE":0,"CLASSIFICATION_TYPE":"U","NORAD_CAT_ID":46167,"ELEMENT_SET_NO":999,"REV_AT_EPOCH":563,"BSTAR":0.002036178,"MEAN_MOTION_DOT":0.00102029,"MEAN_MOTION_DDOT":0},{"OBJECT_NAME":"STARLINK-1627","OBJECT_ID":"2020-057BD","EPOCH":"2026-01-31T00:00:00.999648","MEAN_MOTION":15.55572795,"ECCENTRICITY":0.00058494,"INCLINATION":53.0479,"RA_OF_ASC_NODE":49.8475,"ARG_OF_PERICENTER":315.5886,"MEAN_ANOMALY":245.577,"EPHEMERIS_TYPE":0,"CLASSIFICATION_TYPE":"U","NORAD_CAT_ID":46168,"ELEMENT_SET_NO":999,"REV_AT_EPOCH":586,"BSTAR":0.0025132593,"MEAN_MOTION_DOT":0.00178791,"MEAN_MOTION_DDOT":0},{"OBJECT_NAME":"STARLINK-1633","OBJECT_ID":"2020-057BG","EPOCH":"2026-01-31T00:00:00.999648","MEAN_MOTION":15.49676708,"ECCENTRICITY":0.00046812,"INCLINATION":53.0468,"RA_OF_ASC_NODE":81.1731,"ARG_OF_PERICENTER":231.6148,"MEAN_ANOMALY":353.5706,"EPHEMERIS_TYPE":0,"CLASSIFICATION_TYPE":"U","NORAD_CAT_ID":46171,"ELEMENT_SET_NO":999,"REV_AT_EPOCH":585,"BSTAR":0.0026813087,"MEAN_MOTION_DOT":0.00153676,"MEAN_MOTION_DDOT":0},{"OBJECT_NAME":"STARLINK-1635","OBJECT_ID":"2020-057BH","EPOCH":"2026-01-31T00:00:00.999648","MEAN_MOTION":15.53085485,"ECCENTRICITY":0.00041328,"INCLINATION":53.0479,"RA_OF_ASC_NODE":80.2475,"ARG_OF_PERICENTER":275.427,"MEAN_ANOMALY":345.8136,"EPHEMERIS_TYPE":0,"CLASSIFICATION_TYPE":"U","NORAD_CAT_ID":46172,"ELEMENT_SET_NO":999,"REV_AT_EPOCH":591,"BSTAR":0.003047402,"MEAN_MOTION_DOT":0.00198483,"MEAN_MOTION_DDOT":0},{"OBJECT_NAME":"STARLINK-1640","OBJECT_ID":"2020-057BJ","EPOCH":"2026-01-31T00:00:00.999648","MEAN_MOTION":15.44653031,"ECCENTRICITY":0.00050128,"INCLINATION":53.0549,"RA_OF_ASC_NODE":119.7135,"ARG_OF_PERICENTER":351.7017,"MEAN_ANOMALY":170.5117,"EPHEMERIS_TYPE":0,"CLASSIFICATION_TYPE":"U","NORAD_CAT_ID":46173,"ELEMENT_SET_NO":999,"REV_AT_EPOCH":572,"BSTAR":0.0033558932,"MEAN_MOTION_DOT":0.00161863,"MEAN_MOTION_DDOT":0},{"OBJECT_NAME":"STARLINK-1641","OBJECT_ID":"2020-057BK","EPOCH":"2026-01-30T12:45:00.807840","MEAN_MOTION":15.43415781,"ECCENTRICITY":4.203e-5,"INCLINATION":53.0517,"RA_OF_ASC_NODE":107.2199,"ARG_OF_PERICENTER":95.9077,"MEAN_ANOMALY":264.1976,"EPHEMERIS_TYPE":0,"CLASSIFICATION_TYPE":"U","NORAD_CAT_ID":46174,"ELEMENT_SET_NO":999,"REV_AT_EPOCH":30060,"BSTAR":0.00076173529,"MEAN_MOTION_DOT":0.00034316,"MEAN_MOTION_DDOT":0},{"OBJECT_NAME":"STARLINK-1654","OBJECT_ID":"2020-062B","EPOCH":"2026-01-31T00:00:00.999648","MEAN_MOTION":15.58640006,"ECCENTRICITY":0.00105387,"INCLINATION":53.046,"RA_OF_ASC_NODE":158.4284,"ARG_OF_PERICENTER":184.0446,"MEAN_ANOMALY":35.5703,"EPHEMERIS_TYPE":0,"CLASSIFICATION_TYPE":"U","NORAD_CAT_ID":46326,"ELEMENT_SET_NO":999,"REV_AT_EPOCH":587,"BSTAR":0.0015315684,"MEAN_MOTION_DOT":0.00121313,"MEAN_MOTION_DDOT":0},{"OBJECT_NAME":"STARLINK-1686","OBJECT_ID":"2020-062D","EPOCH":"2026-01-30T17:36:02.372256","MEAN_MOTION":15.54840374,"ECCENTRICITY":0.00097222,"INCLINATION":53.0474,"RA_OF_ASC_NODE":140.5091,"ARG_OF_PERICENTER":188.9317,"MEAN_ANOMALY":171.1521,"EPHEMERIS_TYPE":0,"CLASSIFICATION_TYPE":"U","NORAD_CAT_ID":46328,"ELEMENT_SET_NO":999,"REV_AT_EPOCH":29924,"BSTAR":0.00083614591,"MEAN_MOTION_DOT":0.00056765,"MEAN_MOTION_DDOT":0},{"OBJECT_NAME":"STARLINK-1695","OBJECT_ID":"2020-062E","EPOCH":"2026-01-31T00:00:00.999648","MEAN_MOTION":15.45818774,"ECCENTRICITY":4.213e-5,"INCLINATION":53.0524,"RA_OF_ASC_NODE":157.4592,"ARG_OF_PERICENTER":328.5095,"MEAN_ANOMALY":337.9982,"EPHEMERIS_TYPE":0,"CLASSIFICATION_TYPE":"U","NORAD_CAT_ID":46329,"ELEMENT_SET_NO":999,"REV_AT_EPOCH":581,"BSTAR":0.001636497,"MEAN_MOTION_DOT":0.00081041,"MEAN_MOTION_DDOT":0},{"OBJECT_NAME":"STARLINK-1710","OBJECT_ID":"2020-062F","EPOCH":"2026-01-31T00:00:00.999648","MEAN_MOTION":15.78989112,"ECCENTRICITY":0.00053921,"INCLINATION":53.0347,"RA_OF_ASC_NODE":109.9149,"ARG_OF_PERICENTER":315.0041,"MEAN_ANOMALY":41.1008,"EPHEMERIS_TYPE":0,"CLASSIFICATION_TYPE":"U","NORAD_CAT_ID":46330,"ELEMENT_SET_NO":999,"REV_AT_EPOCH":587,"BSTAR":0.0015329744,"MEAN_MOTION_DOT":0.00286598,"MEAN_MOTION_DDOT":0}]
